{"fetched_at":"2026-04-26T09:04:10Z","count":15341,"tles":[{"name":"IRIDE FM8","line1":"1 66702U 25276AN  26115.51647392  .00007341  00000+0  34936-3 0  9997","line2":"2 66702  97.4208 189.9519 0003824 179.3848 180.7392 15.19446551 22423","category":"Other"},{"name":"STARLINK-30487","line1":"1 57924U 23147M   26115.21996554  .00000499  00000+0  28264-4 0  9997","line2":"2 57924  43.0021  65.8574 0000831 267.5387  92.5369 15.26747205143702","category":"Starlink"},{"name":"STAR ONE D1","line1":"1 41904U 16082B   26115.49304818 -.00000225  00000+0  00000+0 0  9995","line2":"2 41904   0.0165 105.5948 0002252 293.4705 267.9476  1.00273337 34245","category":"Other"},{"name":"SES-20","line1":"1 53960U 22123A   26115.48565656  .00000000  00000+0  00000+0 0  9991","line2":"2 53960   0.0228 103.5384 0001730 326.5347 215.1750  1.00268810 13003","category":"Other"},{"name":"STARLINK-34719","line1":"1 64943U 25158M   26115.51587112  .00010447  00000+0  72687-3 0  9990","line2":"2 64943  97.5771 340.2539 0002391  64.5594 295.5880 15.05663413 42409","category":"Starlink"},{"name":"SORAYA","line1":"1 58817U 24015A   26115.50404068  .00000075  00000+0  54516-4 0  9999","line2":"2 58817  64.5140 233.9130 0011441 239.5122 120.4835 14.42695419119174","category":"Other"},{"name":"STARLINK-34784","line1":"1 65458U 25195A   26115.17379880  .00017963  00000+0  61685-3 0  9992","line2":"2 65458  53.1591  42.0534 0000985 102.1080 258.0031 15.30215104 37119","category":"Starlink"},{"name":"STARLINK-37116","line1":"1 68213U 26053G   26114.21516880  .00014349  00000+0  44581-3 0  9996","line2":"2 68213  97.2856 350.0844 0001609  93.0602 267.0824 15.33453246  7191","category":"Starlink"},{"name":"SPACEBEE-150","line1":"1 52409U 22047R   23362.44741333  .00070708  00000+0  14759-2 0  9999","line2":"2 52409  97.4057  87.0118 0005077  17.9719 342.1709 15.45271538 93472","category":"Other"},{"name":"STARLINK-31920","line1":"1 59907U 24100Y   26115.48515220  .00099373  00000+0  21474-2 0  9999","line2":"2 59907  42.9959 183.3951 0014211  46.7442 313.4599 15.43363359108731","category":"Starlink"},{"name":"SZ-21 MODULE","line1":"1 66515U 25246C   26114.73427522  .00034872  00000+0  25922-3 0  9994","line2":"2 66515  41.4730 279.1403 0004099 320.8652  39.1894 15.72087630 25312","category":"Other"},{"name":"UNKNOWN","line1":"1 87426U          26103.17228231  .00001943  00000+0  75454-3 0  9999","line2":"2 87426  65.7851   4.9423 0066608 239.5614 274.0923 14.30971181639953","category":"Other"},{"name":"STARLINK-11711 [DTC]","line1":"1 64378U 25127J   26115.16021539  .00222732  00000+0  16837-2 0  9991","line2":"2 64378  43.0006 164.1856 0001866 231.0274 129.0428 15.70973565 50924","category":"Starlink"},{"name":"RCM-1","line1":"1 44322U 19033A   26115.10662725  .00000813  00000+0  84436-4 0  9995","line2":"2 44322  97.7598 123.3007 0001511  90.9216 269.2176 14.92592048374161","category":"Other"},{"name":"DISKSAT B","line1":"1 67220U 25305B   26115.38748147  .00005567  00000+0  36954-3 0  9991","line2":"2 67220  45.0048   3.5480 0004436 232.6727 127.3744 15.08193985 19340","category":"Other"},{"name":"COSMOS 2251 DEB","line1":"1 34295U 93036MR  23178.21040042  .00015561  00000+0  19405-2 0  9996","line2":"2 34295  74.0111  93.5651 0067852 195.9096 321.3418 14.80785801764501","category":"Other"},{"name":"SYRACUSE 4A","line1":"1 49333U 21095B   26115.07698693  .00000121  00000+0  00000+0 0  9994","line2":"2 49333   0.0180 275.0336 0001339 126.7031 244.5768  1.00273001 17418","category":"Other"},{"name":"SLIM","line1":"1 57803U 23137D   23270.85622253 -.00000485  00000+0 -12503-2 0  9997","line2":"2 57803  31.0683  15.5934 8937577 245.7662 359.7286  0.55254903   116","category":"Other"},{"name":"STARLINK-31260","line1":"1 58881U 24020F   26115.46002216 -.00002721  00000+0 -79836-4 0  9994","line2":"2 58881  53.1587 105.0503 0001329  85.2480 274.8672 15.30179273125234","category":"Starlink"},{"name":"STARLINK-35188","line1":"1 65522U 25200C   26115.46641844  .00007110  00000+0  49640-3 0  9995","line2":"2 65522  97.5724 185.9622 0000899 181.5120 178.6104 15.05653677 36172","category":"Starlink"},{"name":"STARLINK-1715","line1":"1 46671U 20073B   23362.00878241  .00006228  00000+0  43663-3 0  9994","line2":"2 46671  53.0526 250.2395 0001491  94.7237 265.3922 15.06402617176555","category":"Starlink"},{"name":"STARLINK-36989","line1":"1 68277U 26055R   26114.27352582 -.00788414  00000+0 -44038-2 0  9990","line2":"2 68277  53.1568 108.6872 0001384 173.5298 186.5743 15.80700121  6895","category":"Starlink"},{"name":"FENGYUN 1C DEB","line1":"1 37428U 99025EGW 26098.85250692  .00004198  00000+0  14274-2 0  9992","line2":"2 37428  97.7159 314.2648 0055961 103.8375 256.9048 14.36131597651168","category":"Weather"},{"name":"STARLINK-3857","line1":"1 52494U 22049AV  26115.50869411  .00000376  00000+0  41699-4 0  9998","line2":"2 52494  53.2172 198.9378 0001098  83.9064 276.2053 15.08841556219469","category":"Starlink"},{"name":"TITAN 3C TRANSTAGE DEB","line1":"1 59983U 68081AR  26104.16067155  .00000029  00000+0  00000+0 0  9990","line2":"2 59983   2.5646  59.0371 0213019   9.2120 351.3401  1.02071512  7300","category":"Other"},{"name":"STARLINK-35744","line1":"1 66581U 25268AA  26115.32144286  .00011858  00000+0  43959-3 0  9999","line2":"2 66581  43.0010  83.5190 0001392 277.5848  82.4845 15.27591676 25094","category":"Starlink"},{"name":"UNKNOWN","line1":"1 89142U          23361.26800105  .00288056  00000+0  12226+0 0  9991","line2":"2 89142  64.6815  67.4968 1799688   5.2224 356.4969 11.28397627 54501","category":"Other"},{"name":"STARLINK-34404","line1":"1 64442U 25130E   26115.52408365  .00022446  00000+0  76723-3 0  9994","line2":"2 64442  53.1579 230.9915 0001083 101.1708 258.9415 15.30218606 47873","category":"Starlink"},{"name":"COSMOS 2540","line1":"1 44517U 19057A   26115.56283378  .00000056  00000+0  87132-4 0  9995","line2":"2 44517  99.2078 128.0129 0014883 314.7664  45.2280 13.85938344336580","category":"Other"},{"name":"COSMOS 2251 DEB","line1":"1 34434U 93036SB  26104.57404083  .00003343  00000+0  19444-2 0  9999","line2":"2 34434  74.0611 160.9829 0282147 268.5517 245.2121 13.90960651856738","category":"Other"},{"name":"STARLINK-3097","line1":"1 49448U 21104AS  23361.93934486  .00001701  00000+0  12491-3 0  9996","line2":"2 49448  53.2161 222.8563 0001374  81.6269 278.4879 15.08839711117584","category":"Starlink"},{"name":"STARLINK-30444","line1":"1 57871U 23144H   26115.42663728  .00024421  00000+0  89360-3 0  9996","line2":"2 57871  43.0007  21.3905 0000911 282.9547  77.1203 15.27595264144502","category":"Starlink"},{"name":"STARLINK-31359","line1":"1 58945U 24027Q   26115.23341220  .00000700  00000+0  35748-4 0  9995","line2":"2 58945  53.1611  54.9917 0001289  82.3333 277.7814 15.30198110125000","category":"Starlink"},{"name":"STARLINK-1925","line1":"1 46756U 20074T   23362.17465537  .00006532  00000+0  45691-3 0  9998","line2":"2 46756  53.0564 329.6384 0001569 102.0162 258.1003 15.06408979175664","category":"Starlink"},{"name":"STARLINK-37181","line1":"1 68341U 26059W   26114.54945570  .00021522  00000+0  39372-3 0  9995","line2":"2 68341  53.1594 134.7727 0001584  68.6651 291.4527 15.49326158  5203","category":"Starlink"},{"name":"IRIDIUM 33 DEB","line1":"1 37562U 97051XX  26103.94621302  .00002035  00000+0  43769-3 0  9995","line2":"2 37562  86.3778 350.2716 0026245  55.5141 320.1122 14.57860975881086","category":"Other"},{"name":"STARLINK-4024","line1":"1 52599U 22052B   26115.24834756 -.00002302  00000+0 -12655-3 0  9995","line2":"2 52599  53.2177  70.2121 0001391  91.4532 268.6620 15.08842090218680","category":"Starlink"},{"name":"STARLINK-11141 [DTC]","line1":"1 60066U 24113H   26115.54286679  .00004086  00000+0  38555-4 0  9998","line2":"2 60066  53.1577 319.9740 0000476 110.0355 250.0714 15.69712991106920","category":"Starlink"},{"name":"GSAT0203 (GALILEO 7)","line1":"1 40544U 15017A   26111.90090206 -.00000083  00000+0  00000+0 0  9998","line2":"2 40544  56.8042 343.1309 0002546 315.4442  44.5780  1.70475713 68240","category":"GPS"},{"name":"STARLINK-2372","line1":"1 47912U 21021BE  23361.15589582  .00015157  00000+0  10348-2 0  9993","line2":"2 47912  53.0543 278.8187 0001401  83.9137 276.2012 15.06379437154929","category":"Starlink"},{"name":"KUIPER-00048","line1":"1 64508U 25134J   26115.10968359  .00002711  00000+0  38470-3 0  9999","line2":"2 64508  51.8995  10.3068 0000593 105.7948 254.3080 14.79914313 47196","category":"Other"},{"name":"STARLINK-1033","line1":"1 44738U 19074AB  23280.76445451  .13006070  11841-4  52637-2 0  9999","line2":"2 44738  53.0286 136.5849 0009206 251.7126 198.9503 16.22619513216492","category":"Starlink"},{"name":"STARLINK-36457","line1":"1 67349U 26003R   26115.30565167  .00018838  00000+0  69173-3 0  9994","line2":"2 67349  43.0052 323.7647 0002175 262.4085  97.6520 15.27608132 15953","category":"Starlink"},{"name":"COSMOS 2251 DEB","line1":"1 34579U 93036VR  26104.86414419  .00000709  00000+0  20679-3 0  9991","line2":"2 34579  74.0548 354.5862 0025550  33.7466  92.9701 14.45743984899538","category":"Other"},{"name":"STARLINK-3192","line1":"1 49767U 21115AV  26115.21337370  .00000988  00000+0  80109-4 0  9990","line2":"2 49767  53.2166 290.2670 0001366  99.0972 261.0174 15.08848697242708","category":"Starlink"},{"name":"STARLINK-30712","line1":"1 57935U 23148A   26115.52022479 -.00001267  00000+0 -30697-4 0  9999","line2":"2 57935  53.1603 166.6774 0001274  91.5517 268.5630 15.30177260145594","category":"Starlink"},{"name":"STARLINK-31488","line1":"1 59009U 24036M   26114.71816777  .00001970  00000+0  78638-4 0  9998","line2":"2 59009  53.1612 224.0986 0001316  76.0389 284.0758 15.30190930122378","category":"Starlink"},{"name":"STARLINK-35328","line1":"1 65652U 25211A   26115.11297113  .00005444  00000+0  38115-3 0  9992","line2":"2 65652  97.5742 159.7596 0001147 115.6959 244.4386 15.05652492 34020","category":"Starlink"}]}